{"type": "FeatureCollection", "name": "caciques", "features": [{"type": "Feature", "properties": {"label": 1.0, "yucayeque": "Aymaco", "cacique": "Aymamon"}, "geometry": {"type": "Point", "coordinates": [-67.155521, 18.36918]}}, {"type": "Feature", "properties": {"label": 2.0, "yucayeque": "Yagueca", "cacique": "Urayoan"}, "geometry": {"type": "Point", "coordinates": [-66.97017, 18.228009]}}, {"type": "Feature", "properties": {"label": 3.0, "yucayeque": "Guajataca", "cacique": "Mabodamaca"}, "geometry": {"type": "Point", "coordinates": [-66.854952, 18.314282]}}, {"type": "Feature", "properties": {"label": 4.0, "yucayeque": "Guaynia", "cacique": "Agueybana"}, "geometry": {"type": "Point", "coordinates": [-66.788007, 18.076116]}}, {"type": "Feature", "properties": {"label": 5.0, "yucayeque": "Abacoa", "cacique": "Arasibo"}, "geometry": {"type": "Point", "coordinates": [-66.708994, 18.414123]}}, {"type": "Feature", "properties": {"label": 6.0, "yucayeque": "Otoao", "cacique": "Guarionex"}, "geometry": {"type": "Point", "coordinates": [-66.57055, 18.229739]}}, {"type": "Feature", "properties": {"label": 7.0, "yucayeque": "Sibuco", "cacique": "Guacabo"}, "geometry": {"type": "Point", "coordinates": [-66.374497, 18.37696]}}, {"type": "Feature", "properties": {"label": 8.0, "yucayeque": "Jatibonico", "cacique": "Orocobix"}, "geometry": {"type": "Point", "coordinates": [-66.301404, 18.222818]}}, {"type": "Feature", "properties": {"label": 9.0, "yucayeque": "Toa", "cacique": "Aramana"}, "geometry": {"type": "Point", "coordinates": [-66.225123, 18.413259]}}, {"type": "Feature", "properties": {"label": 10.0, "yucayeque": "Guaynabo", "cacique": "Mabo"}, "geometry": {"type": "Point", "coordinates": [-66.198938, 18.252446]}}, {"type": "Feature", "properties": {"label": 12.0, "yucayeque": "Bayamon", "cacique": "Majagua"}, "geometry": {"type": "Point", "coordinates": [-66.124478, 18.380201]}}, {"type": "Feature", "properties": {"label": 13.0, "yucayeque": "Turabo", "cacique": "Caguax"}, "geometry": {"type": "Point", "coordinates": [-66.065503, 18.214166]}}, {"type": "Feature", "properties": {"label": 11.0, "yucayeque": "Guayama", "cacique": "Guamani"}, "geometry": {"type": "Point", "coordinates": [-66.174118, 18.101224]}}, {"type": "Feature", "properties": {"label": 14.0, "yucayeque": "Cayniabon", "cacique": "Canobana"}, "geometry": {"type": "Point", "coordinates": [-65.994232, 18.334384]}}, {"type": "Feature", "properties": {"label": 15.0, "yucayeque": "Guayaney", "cacique": "Guaraca"}, "geometry": {"type": "Point", "coordinates": [-65.938217, 18.117023]}}, {"type": "Feature", "properties": {"label": 16.0, "yucayeque": "Jaymanio", "cacique": "Yuisa"}, "geometry": {"type": "Point", "coordinates": [-65.869223, 18.418228]}}, {"type": "Feature", "properties": {"label": 17.0, "yucayeque": "Macao", "cacique": "Humacao"}, "geometry": {"type": "Point", "coordinates": [-65.881746, 18.228874]}}, {"type": "Feature", "properties": {"label": 18.0, "yucayeque": "Daguao", "cacique": "Daguao"}, "geometry": {"type": "Point", "coordinates": [-65.738065, 18.29569]}}]}